NORAD_CAT_ID,OBJECT_NAME,OBJECT_TYPE,EPOCH,MEAN_MOTION,ECCENTRICITY,INCLINATION,RA_OF_ASC_NODE,ARG_OF_PERICENTER,MEAN_ANOMALY,BSTAR,MEAN_MOTION_DOT,MEAN_MOTION_DDOT,TLE_LINE0,TLE_LINE1,TLE_LINE2,SEMIMAJOR_AXIS,PERIOD,APOGEE,PERIGEE,DECAYED
49443.0,STARLINK-3136,PAYLOAD,2023-01-30 21:37:14,15.08854794,0.0001472,53.2154,258.8923,83.8932,276.2228,0.00034566,5.22e-05,0.0,0 STARLINK-3136,1 49443U 21104AM  23030.90086556  .00005220  00000-0  34566-3 0  9995,2 49443  53.2154 258.8923 0001472  83.8932 276.2228 15.08854794 68824,6917.835,95.437,540.718,538.682,0.0
49443.0,STARLINK-3136,PAYLOAD,2023-01-31 00:48:00,15.08856172,0.0001438,53.2154,258.2977,84.0918,276.0238,0.00033814,5.1e-05,0.0,0 STARLINK-3136,1 49443U 21104AM  23031.03334409  .00005100  00000-0  33814-3 0  9995,2 49443  53.2154 258.2977 0001438  84.0918 276.0238 15.08856172 67770,6917.831,95.437,540.691,538.701,0.0
49443.0,STARLINK-3136,PAYLOAD,2023-01-31 21:28:01,15.0885104,0.0001484,53.2152,254.4313,84.7443,275.3718,0.00013305,1.831e-05,0.0,0 STARLINK-3136,1 49443U 21104AM  23031.89446034  .00001831  00000-0  13305-3 0  9997,2 49443  53.2152 254.4313 0001484  84.7443 275.3718 15.08851040 67900,6917.847,95.437,540.738,538.685,0.0
49443.0,STARLINK-3136,PAYLOAD,2023-02-01 00:38:47,15.08849684,0.0001503,53.2151,253.837,85.0836,275.0328,9.1093e-05,1.162e-05,0.0,0 STARLINK-3136,1 49443U 21104AM  23032.02694014  .00001162  00000-0  91093-4 0  9994,2 49443  53.2151 253.8370 0001503  85.0836 275.0328 15.08849684 68992,6917.851,95.437,540.756,538.676,0.0
49443.0,STARLINK-3136,PAYLOAD,2023-02-02 00:29:34,15.0884486,0.0001492,53.2149,249.3771,87.2045,272.9118,-0.00022687,-3.897e-05,0.0,0 STARLINK-3136,1 49443U 21104AM  23033.02053971 -.00003897  00000-0 -22687-3 0  9997,2 49443  53.2149 249.3771 0001492  87.2045 272.9118 15.08844860 69149,6917.866,95.437,540.763,538.698,0.0
49443.0,STARLINK-3136,PAYLOAD,2023-02-02 14:48:03,15.08849635,0.0001598,53.2138,246.7021,96.3234,263.7941,-0.00012198,-2.229e-05,0.0,0 STARLINK-3136,1 49443U 21104AM  23033.61670466 -.00002229  00000-0 -12198-3 0  9990,2 49443  53.2138 246.7021 0001598  96.3234 263.7941 15.08849635 68162,6917.851,95.437,540.821,538.61,0.0
49443.0,STARLINK-3136,PAYLOAD,2023-02-03 13:03:27,15.08833366,0.0001383,53.2146,242.538,93.8399,266.2752,4.9318e-05,4.97e-06,0.0,0 STARLINK-3136,1 49443U 21104AM  23034.54406967  .00000497  00000-0  49318-4 0  9994,2 49443  53.2146 242.5380 0001383  93.8399 266.2752 15.08833366 69375,6917.901,95.438,540.722,538.809,0.0
49443.0,STARLINK-3136,PAYLOAD,2023-02-03 16:14:13,15.08833269,0.0001369,53.2146,241.9432,93.6336,266.4813,4.2321e-05,3.86e-06,0.0,0 STARLINK-3136,1 49443U 21104AM  23034.67655034  .00000386  00000-0  42321-4 0  9993,2 49443  53.2146 241.9432 0001369  93.6336 266.4813 15.08833269 68325,6917.901,95.438,540.713,538.819,0.0
49443.0,STARLINK-3136,PAYLOAD,2023-02-04 09:43:28,15.08839898,0.0001269,53.2148,238.672,90.659,269.4548,0.00011182,1.492e-05,0.0,0 STARLINK-3136,1 49443U 21104AM  23035.40518641  .00001492  00000-0  11182-3 0  9996,2 49443  53.2148 238.6720 0001269  90.6590 269.4548 15.08839898 68432,6917.881,95.438,540.624,538.868,0.0
49443.0,STARLINK-3136,PAYLOAD,2023-02-04 20:51:09,15.08845136,0.0001253,53.2151,236.5908,90.1524,269.9611,0.00012188,1.653e-05,0.0,0 STARLINK-3136,1 49443U 21104AM  23035.86886295  .00001653  00000-0  12188-3 0  9995,2 49443  53.2151 236.5908 0001253  90.1524 269.9611 15.08845136 69570,6917.865,95.437,540.596,538.863,0.0
49443.0,STARLINK-3136,PAYLOAD,2023-02-05 00:01:55,15.08847666,0.0001254,53.2151,235.996,89.9279,270.1857,0.00014104,1.958e-05,0.0,0 STARLINK-3136,1 49443U 21104AM  23036.00134068  .00001958  00000-0  14104-3 0  9994,2 49443  53.2151 235.9960 0001254  89.9279 270.1857 15.08847666 68525,6917.857,95.437,540.589,538.854,0.0
49443.0,STARLINK-3136,PAYLOAD,2023-02-05 19:06:34,15.08834904,0.0001401,53.2138,232.4278,85.3967,274.7185,6.9198e-05,8.13e-06,0.0,0 STARLINK-3136,1 49443U 21104AM  23036.79623155  .00000813  00000-0  69198-4 0  9993,2 49443  53.2138 232.4278 0001401  85.3967 274.7185 15.08834904 69719,6917.896,95.438,540.73,538.792,0.0
49443.0,STARLINK-3136,PAYLOAD,2023-02-06 12:35:48,15.08845762,0.0001362,53.2144,229.1563,83.7931,276.3216,0.00017263,2.461e-05,0.0,0 STARLINK-3136,1 49443U 21104AM  23037.52486783  .00002461  00000-0  17263-3 0  9995,2 49443  53.2144 229.1563 0001362  83.7931 276.3216 15.08845762 68755,6917.863,95.437,540.67,538.786,0.0
49443.0,STARLINK-3136,PAYLOAD,2023-02-06 18:57:21,15.08849826,0.0001385,53.214,227.9669,83.2809,276.834,0.00031558,4.739e-05,0.0,0 STARLINK-3136,1 49443U 21104AM  23037.78982646  .00004739  00000-0  31558-3 0  9995,2 49443  53.2140 227.9669 0001385  83.2809 276.8340 15.08849826 69869,6917.85,95.437,540.673,538.757,0.0
49443.0,STARLINK-3136,PAYLOAD,2023-02-07 06:05:03,15.08845878,0.0001514,53.2155,225.8852,82.8341,277.2824,0.00032839,4.943e-05,0.0,0 STARLINK-3136,1 49443U 21104AM  23038.25350933  .00004943  00000-0  32839-3 0  9996,2 49443  53.2155 225.8852 0001514  82.8341 277.2824 15.08845878 69939,6917.862,95.437,540.775,538.68,0.0
49443.0,STARLINK-3136,PAYLOAD,2023-02-07 20:23:31,15.08852752,0.0001302,53.216,223.2098,84.0367,276.0774,0.00037606,5.704e-05,0.0,0 STARLINK-3136,1 49443U 21104AM  23038.84966450  .00005704  00000-0  37606-3 0  9991,2 49443  53.2160 223.2098 0001302  84.0367 276.0774 15.08852752 68957,6917.841,95.437,540.607,538.806,0.0
49443.0,STARLINK-3136,PAYLOAD,2023-02-08 12:17:22,15.08833072,0.0001036,53.2154,220.2353,84.6629,275.4481,-7.0453e-05,-1.409e-05,0.0,0 STARLINK-3136,1 49443U 21104AM  23039.51206789 -.00001409  00000-0 -70453-4 0  9996,2 49443  53.2154 220.2353 0001036  84.6629 275.4481 15.08833072 69056,6917.902,95.438,540.483,539.05,0.0
49443.0,STARLINK-3136,PAYLOAD,2023-02-08 13:52:45,15.08835624,0.0001268,53.2152,219.937,91.2407,268.8731,-3.716e-06,-3.47e-06,0.0,0 STARLINK-3136,1 49443U 21104AM  23039.57830885 -.00000347  00000-0 -37160-5 0  9991,2 49443  53.2152 219.9370 0001268  91.2407 268.8731 15.08835624 70133,6917.894,95.438,540.636,538.882,0.0
49443.0,STARLINK-3136,PAYLOAD,2023-02-08 20:14:18,15.08843803,0.0001162,53.2162,218.7486,87.8964,272.2161,0.00037888,5.748e-05,0.0,0 STARLINK-3136,1 49443U 21104AM  23039.84326902  .00005748  00000-0  37888-3 0  9994,2 49443  53.2162 218.7486 0001162  87.8964 272.2161 15.08843803 69100,6917.869,95.437,540.538,538.93,0.0
49443.0,STARLINK-3136,PAYLOAD,2023-02-09 12:08:09,15.08842019,0.0001203,53.2164,215.7747,89.0148,271.0982,0.00034089,5.142e-05,0.0,0 STARLINK-3136,1 49443U 21104AM  23040.50567126  .00005142  00000-0  34089-3 0  9992,2 49443  53.2164 215.7747 0001203  89.0148 271.0982 15.08842019 69200,6917.874,95.437,540.571,538.907,0.0
49443.0,STARLINK-3136,PAYLOAD,2023-02-09 18:29:42,15.08852911,0.0001317,53.217,214.5862,96.0666,264.0476,0.00063679,9.865e-05,0.0,0 STARLINK-3136,1 49443U 21104AM  23040.77062858  .00009865  00000-0  63679-3 0  9996,2 49443  53.2170 214.5862 0001317  96.0666 264.0476 15.08852911 70317,6917.841,95.437,540.617,538.795,0.0
49443.0,STARLINK-3136,PAYLOAD,2023-02-10 04:02:01,15.08843984,0.0001124,53.2166,212.8011,82.0714,278.0406,0.00038995,5.924e-05,0.0,0 STARLINK-3136,1 49443U 21104AM  23041.16806967  .00005924  00000-0  38995-3 0  9992,2 49443  53.2166 212.8011 0001124  82.0714 278.0406 15.08843984 70378,6917.868,95.437,540.511,538.956,0.0
49443.0,STARLINK-3136,PAYLOAD,2023-02-10 15:09:42,15.08862494,8e-05,53.217,210.72,99.4775,260.6307,0.0006078,9.404e-05,0.0,0 STARLINK-3136,1 49443U 21104AM  23041.63174103  .00009404  00000-0  60780-3 0  9998,2 49443  53.2170 210.7200 0000800  99.4775 260.6307 15.08862494 70441,6917.812,95.436,540.23,539.123,0.0
49443.0,STARLINK-3136,PAYLOAD,2023-02-10 19:55:50,15.08914408,8.08e-05,53.2166,209.8276,97.5665,262.5419,0.001992,0.00031622,0.0,0 STARLINK-3136,1 49443U 21104AM  23041.83044395  .00031622  00000-0  19920-2 0  9995,2 49443  53.2166 209.8276 0000808  97.5665 262.5419 15.08914408 69405,6917.653,95.433,540.077,538.959,0.0
49443.0,STARLINK-3136,PAYLOAD,2023-02-11 03:52:46,15.08850887,5.85e-05,53.2172,208.3431,110.2255,249.88,-0.00012743,-2.316e-05,0.0,0 STARLINK-3136,1 49443U 21104AM  23042.16165339 -.00002316  00000-0 -12743-3 0  9991,2 49443  53.2172 208.3431 0000585 110.2255 249.8800 15.08850887 70526,6917.847,95.437,540.117,539.307,0.0
49443.0,STARLINK-3136,PAYLOAD,2023-02-12 03:43:35,15.08828409,0.0001208,53.2169,203.881,83.0322,277.0807,1.0493e-06,-2.71e-06,0.0,0 STARLINK-3136,1 49443U 21104AM  23043.15526975 -.00000271  00000-0  10493-5 0  9997,2 49443  53.2169 203.8810 0001208  83.0322 277.0807 15.08828409 70679,6917.916,95.438,540.617,538.945,0.0
49443.0,STARLINK-3136,PAYLOAD,2023-02-12 10:05:08,15.08822556,9.03e-05,53.2162,202.6908,82.7561,277.3533,0.00079177,0.0001233,0.0,0 STARLINK-3136,1 49443U 21104AM  23043.42023570  .00012330  00000-0  79177-3 0  9990,2 49443  53.2162 202.6908 0000903  82.7561 277.3533 15.08822556 69640,6917.934,95.439,540.423,539.174,0.0
49443.0,STARLINK-3136,PAYLOAD,2023-02-13 03:34:22,15.08850358,0.0001233,53.2171,199.4211,81.0331,279.0801,0.00094992,0.00014867,0.0,0 STARLINK-3136,1 49443U 21104AM  23044.14887537  .00014867  00000-0  94992-3 0  9990,2 49443  53.2171 199.4211 0001233  81.0331 279.0801 15.08850358 70824,6917.849,95.437,540.567,538.861,0.0
49443.0,STARLINK-3136,PAYLOAD,2023-02-13 09:55:55,15.08842649,0.0001578,53.2158,198.233,81.204,278.9131,0.00037566,5.696e-05,0.0,0 STARLINK-3136,1 49443U 21104AM  23044.41383699  .00005696  00000-0  37566-3 0  9994,2 49443  53.2158 198.2330 0001578  81.2040 278.9131 15.08842649 70861,6917.872,95.437,540.829,538.646,0.0
49443.0,STARLINK-3136,PAYLOAD,2023-02-14 09:46:42,15.08839706,0.000146,53.2134,193.7708,90.6585,269.4574,0.00015536,2.185e-05,0.0,0 STARLINK-3136,1 49443U 21104AM  23045.40743839  .00002185  00000-0  15536-3 0  9993,2 49443  53.2134 193.7708 0001460  90.6585 269.4574 15.08839706 71016,6917.881,95.438,540.756,538.736,0.0
